{"type": "FeatureCollection", "crs": {"type": "name", "properties": {"name": "EPSG:4326"}}, "features": [{"type": "Feature", "properties": {"change_detected": 1}, "geometry": {"type": "Polygon", "coordinates": [[[72.63427044429645, 23.19441080443763], [72.63427044429645, 23.194231141380808], [72.63445010735327, 23.194231141380808], [72.63445010735327, 23.19441080443763], [72.63427044429645, 23.19441080443763]]]}}, {"type": "Feature", "properties": {"change_detected": 1}, "geometry": {"type": "Polygon", "coordinates": [[[72.63498909652374, 23.194231141380808], [72.63498909652374, 23.194141309852395], [72.63507892805215, 23.194141309852395], [72.63507892805215, 23.194231141380808], [72.63498909652374, 23.194231141380808]]]}}, {"type": "Feature", "properties": {"change_detected": 1}, "geometry": {"type": "Polygon", "coordinates": [[[72.64037898822846, 23.19378198373875], [72.64037898822846, 23.193692152210335], [72.64046881975688, 23.193692152210335], [72.64046881975688, 23.19378198373875], [72.64037898822846, 23.19378198373875]]]}}, {"type": "Feature", "properties": {"change_detected": 1}, "geometry": {"type": "Polygon", "coordinates": [[[72.63633656944992, 23.19378198373875], [72.63633656944992, 23.193602320681922], [72.63642640097834, 23.193602320681922], [72.63642640097834, 23.19378198373875], [72.63633656944992, 23.19378198373875]]]}}, {"type": "Feature", "properties": {"change_detected": 1}, "geometry": {"type": "Polygon", "coordinates": [[[72.64181629268305, 23.193153163039863], [72.64181629268305, 23.193063331511453], [72.64190612421146, 23.193063331511453], [72.64190612421146, 23.193153163039863], [72.64181629268305, 23.193153163039863]]]}}, {"type": "Feature", "properties": {"change_detected": 1}, "geometry": {"type": "Polygon", "coordinates": [[[72.63552808569422, 23.193063331511453], [72.63552808569422, 23.192883668454627], [72.63570774875105, 23.192883668454627], [72.63570774875105, 23.193063331511453], [72.63552808569422, 23.193063331511453]]]}}, {"type": "Feature", "properties": {"change_detected": 1}, "geometry": {"type": "Polygon", "coordinates": [[[72.63723488473404, 23.19297349998304], [72.63723488473404, 23.192883668454627], [72.63732471626246, 23.192883668454627], [72.63732471626246, 23.19297349998304], [72.63723488473404, 23.19297349998304]]]}}, {"type": "Feature", "properties": {"change_detected": 1}, "geometry": {"type": "Polygon", "coordinates": [[[72.6361569063931, 23.19297349998304], [72.6361569063931, 23.192793836926217], [72.63651623250675, 23.192793836926217], [72.63651623250675, 23.192883668454627], [72.63624673792151, 23.192883668454627], [72.63624673792151, 23.19297349998304], [72.6361569063931, 23.19297349998304]]]}}, {"type": "Feature", "properties": {"change_detected": 1}, "geometry": {"type": "Polygon", "coordinates": [[[72.6375942108477, 23.193063331511453], [72.6375942108477, 23.19297349998304], [72.63750437931928, 23.19297349998304], [72.63750437931928, 23.192793836926217], [72.63795353696133, 23.192793836926217], [72.63795353696133, 23.19297349998304], [72.63777387390451, 23.19297349998304], [72.63777387390451, 23.193063331511453], [72.6375942108477, 23.193063331511453]]]}}, {"type": "Feature", "properties": {"change_detected": 1}, "geometry": {"type": "Polygon", "coordinates": [[[72.63687555862039, 23.192883668454627], [72.63687555862039, 23.192793836926217], [72.6369653901488, 23.192793836926217], [72.6369653901488, 23.192883668454627], [72.63687555862039, 23.192883668454627]]]}}, {"type": "Feature", "properties": {"change_detected": 1}, "geometry": {"type": "Polygon", "coordinates": [[[72.63732471626246, 23.192883668454627], [72.63732471626246, 23.192793836926217], [72.63741454779087, 23.192793836926217], [72.63741454779087, 23.192883668454627], [72.63732471626246, 23.192883668454627]]]}}, {"type": "Feature", "properties": {"change_detected": 1}, "geometry": {"type": "Polygon", "coordinates": [[[72.63660606403516, 23.192793836926217], [72.63660606403516, 23.192704005397804], [72.63669589556358, 23.192704005397804], [72.63669589556358, 23.192793836926217], [72.63660606403516, 23.192793836926217]]]}}, {"type": "Feature", "properties": {"change_detected": 1}, "geometry": {"type": "Polygon", "coordinates": [[[72.64037898822846, 23.192883668454627], [72.64037898822846, 23.192793836926217], [72.64019932517164, 23.192793836926217], [72.64019932517164, 23.192704005397804], [72.64055865128529, 23.192704005397804], [72.64055865128529, 23.192883668454627], [72.64037898822846, 23.192883668454627]]]}}, {"type": "Feature", "properties": {"change_detected": 1}, "geometry": {"type": "Polygon", "coordinates": [[[72.64181629268305, 23.19261417386939], [72.64181629268305, 23.192344679284155], [72.64190612421146, 23.192344679284155], [72.64190612421146, 23.192434510812568], [72.64199595573987, 23.192434510812568], [72.64199595573987, 23.19261417386939], [72.64181629268305, 23.19261417386939]]]}}, {"type": "Feature", "properties": {"change_detected": 1}, "geometry": {"type": "Polygon", "coordinates": [[[72.64154679809782, 23.194680299022867], [72.64154679809782, 23.194500635966044], [72.64163662962623, 23.194500635966044], [72.64163662962623, 23.193692152210335], [72.64172646115463, 23.193692152210335], [72.64172646115463, 23.193602320681922], [72.64163662962623, 23.193602320681922], [72.64163662962623, 23.193512489153512], [72.64154679809782, 23.193512489153512], [72.64154679809782, 23.193332826096686], [72.64163662962623, 23.193332826096686], [72.64163662962623, 23.193242994568276], [72.64199595573987, 23.193242994568276], [72.64199595573987, 23.19297349998304], [72.64208578726829, 23.19297349998304], [72.64208578726829, 23.192793836926217], [72.6421756187967, 23.192793836926217], [72.6421756187967, 23.192344679284155], [72.64226545032511, 23.192344679284155], [72.64226545032511, 23.192254847755745], [72.64235528185353, 23.192254847755745], [72.64235528185353, 23.192434510812568], [72.64244511338194, 23.192434510812568], [72.64244511338194, 23.19252434234098], [72.64271460796716, 23.19252434234098], [72.64271460796716, 23.192434510812568], [72.64280443949558, 23.192434510812568], [72.64280443949558, 23.192883668454627], [72.64271460796716, 23.192883668454627], [72.64271460796716, 23.193153163039863], [72.64280443949558, 23.193153163039863], [72.64280443949558, 23.193242994568276], [72.64271460796716, 23.193242994568276], [72.64271460796716, 23.193602320681922], [72.64262477643877, 23.193602320681922], [72.64262477643877, 23.193692152210335], [72.64253494491035, 23.193692152210335], [72.64253494491035, 23.19378198373875], [72.6421756187967, 23.19378198373875], [72.6421756187967, 23.193692152210335], [72.64199595573987, 23.193692152210335], [72.64199595573987, 23.194320972909217], [72.64208578726829, 23.194320972909217], [72.64208578726829, 23.19441080443763], [72.64190612421146, 23.19441080443763], [72.64190612421146, 23.194680299022867], [72.64154679809782, 23.194680299022867]]]}}, {"type": "Feature", "properties": {"change_detected": 1}, "geometry": {"type": "Polygon", "coordinates": [[[72.63436027582486, 23.192344679284155], [72.63436027582486, 23.19216501622733], [72.63445010735327, 23.19216501622733], [72.63445010735327, 23.192344679284155], [72.63436027582486, 23.192344679284155]]]}}, {"type": "Feature", "properties": {"change_detected": 1}, "geometry": {"type": "Polygon", "coordinates": [[[72.64028915670005, 23.192075184698922], [72.64028915670005, 23.19198535317051], [72.64037898822846, 23.19198535317051], [72.64037898822846, 23.192075184698922], [72.64028915670005, 23.192075184698922]]]}}, {"type": "Feature", "properties": {"change_detected": 1}, "geometry": {"type": "Polygon", "coordinates": [[[72.64181629268305, 23.192075184698922], [72.64181629268305, 23.19198535317051], [72.64190612421146, 23.19198535317051], [72.64190612421146, 23.192075184698922], [72.64181629268305, 23.192075184698922]]]}}, {"type": "Feature", "properties": {"change_detected": 1}, "geometry": {"type": "Polygon", "coordinates": [[[72.63975016752957, 23.193153163039863], [72.63975016752957, 23.19261417386939], [72.63957050447276, 23.19261417386939], [72.63957050447276, 23.192704005397804], [72.63948067294434, 23.192704005397804], [72.63948067294434, 23.192434510812568], [72.63966033600117, 23.192434510812568], [72.63966033600117, 23.192344679284155], [72.63975016752957, 23.192344679284155], [72.63975016752957, 23.191895521642095], [72.63983999905798, 23.191895521642095], [72.63983999905798, 23.19216501622733], [72.64010949364322, 23.19216501622733], [72.64010949364322, 23.192434510812568], [72.64001966211481, 23.192434510812568], [72.64001966211481, 23.19252434234098], [72.6399298305864, 23.19252434234098], [72.6399298305864, 23.192883668454627], [72.63983999905798, 23.192883668454627], [72.63983999905798, 23.19297349998304], [72.6399298305864, 23.19297349998304], [72.6399298305864, 23.193153163039863], [72.63975016752957, 23.193153163039863]]]}}, {"type": "Feature", "properties": {"change_detected": 1}, "geometry": {"type": "Polygon", "coordinates": [[[72.63777387390451, 23.19198535317051], [72.63777387390451, 23.191715858585273], [72.63795353696133, 23.191715858585273], [72.63795353696133, 23.19198535317051], [72.63777387390451, 23.19198535317051]]]}}, {"type": "Feature", "properties": {"change_detected": 1}, "geometry": {"type": "Polygon", "coordinates": [[[72.64208578726829, 23.19198535317051], [72.64208578726829, 23.19162602705686], [72.6421756187967, 23.19162602705686], [72.6421756187967, 23.191715858585273], [72.64226545032511, 23.191715858585273], [72.64226545032511, 23.19198535317051], [72.64208578726829, 23.19198535317051]]]}}, {"type": "Feature", "properties": {"change_detected": 1}, "geometry": {"type": "Polygon", "coordinates": [[[72.64181629268305, 23.19162602705686], [72.64181629268305, 23.19153619552845], [72.64190612421146, 23.19153619552845], [72.64190612421146, 23.19162602705686], [72.64181629268305, 23.19162602705686]]]}}, {"type": "Feature", "properties": {"change_detected": 1}, "geometry": {"type": "Polygon", "coordinates": [[[72.6375942108477, 23.19162602705686], [72.6375942108477, 23.191446364000036], [72.63768404237611, 23.191446364000036], [72.63768404237611, 23.19162602705686], [72.6375942108477, 23.19162602705686]]]}}, {"type": "Feature", "properties": {"change_detected": 1}, "geometry": {"type": "Polygon", "coordinates": [[[72.63777387390451, 23.191446364000036], [72.63777387390451, 23.191266700943213], [72.63786370543292, 23.191266700943213], [72.63786370543292, 23.191356532471623], [72.63795353696133, 23.191356532471623], [72.63795353696133, 23.191446364000036], [72.63777387390451, 23.191446364000036]]]}}, {"type": "Feature", "properties": {"change_detected": 1}, "geometry": {"type": "Polygon", "coordinates": [[[72.64100780892734, 23.191356532471623], [72.64100780892734, 23.191266700943213], [72.64109764045575, 23.191266700943213], [72.64109764045575, 23.191356532471623], [72.64100780892734, 23.191356532471623]]]}}, {"type": "Feature", "properties": {"change_detected": 1}, "geometry": {"type": "Polygon", "coordinates": [[[72.63471960193851, 23.191356532471623], [72.63471960193851, 23.191266700943213], [72.6346297704101, 23.191266700943213], [72.6346297704101, 23.1911768694148], [72.63480943346691, 23.1911768694148], [72.63480943346691, 23.191266700943213], [72.63489926499533, 23.191266700943213], [72.63489926499533, 23.191356532471623], [72.63471960193851, 23.191356532471623]]]}}, {"type": "Feature", "properties": {"change_detected": 1}, "geometry": {"type": "Polygon", "coordinates": [[[72.63436027582486, 23.1911768694148], [72.63436027582486, 23.19108703788639], [72.63445010735327, 23.19108703788639], [72.63445010735327, 23.1911768694148], [72.63436027582486, 23.1911768694148]]]}}, {"type": "Feature", "properties": {"change_detected": 1}, "geometry": {"type": "Polygon", "coordinates": [[[72.64181629268305, 23.190997206357977], [72.64181629268305, 23.190907374829564], [72.64190612421146, 23.190907374829564], [72.64190612421146, 23.190997206357977], [72.64181629268305, 23.190997206357977]]]}}, {"type": "Feature", "properties": {"change_detected": 1}, "geometry": {"type": "Polygon", "coordinates": [[[72.64118747198417, 23.190907374829564], [72.64118747198417, 23.19072771177274], [72.64127730351258, 23.19072771177274], [72.64127730351258, 23.190907374829564], [72.64118747198417, 23.190907374829564]]]}}, {"type": "Feature", "properties": {"change_detected": 1}, "geometry": {"type": "Polygon", "coordinates": [[[72.63453993888169, 23.190817543301154], [72.63453993888169, 23.190637880244328], [72.6346297704101, 23.190637880244328], [72.6346297704101, 23.190817543301154], [72.63453993888169, 23.190817543301154]]]}}, {"type": "Feature", "properties": {"change_detected": 1}, "geometry": {"type": "Polygon", "coordinates": [[[72.63427044429645, 23.19108703788639], [72.63427044429645, 23.190458217187505], [72.63436027582486, 23.190458217187505], [72.63436027582486, 23.19108703788639], [72.63427044429645, 23.19108703788639]]]}}, {"type": "Feature", "properties": {"change_detected": 1}, "geometry": {"type": "Polygon", "coordinates": [[[72.64235528185353, 23.191715858585273], [72.64235528185353, 23.19162602705686], [72.64226545032511, 23.19162602705686], [72.64226545032511, 23.191446364000036], [72.64235528185353, 23.191446364000036], [72.64235528185353, 23.1911768694148], [72.64226545032511, 23.1911768694148], [72.64226545032511, 23.190907374829564], [72.6421756187967, 23.190907374829564], [72.6421756187967, 23.19072771177274], [72.64226545032511, 23.19072771177274], [72.64226545032511, 23.190458217187505], [72.64253494491035, 23.190458217187505], [72.64253494491035, 23.19072771177274], [72.64262477643877, 23.19072771177274], [72.64262477643877, 23.190997206357977], [72.64253494491035, 23.190997206357977], [72.64253494491035, 23.19108703788639], [72.64244511338194, 23.19108703788639], [72.64244511338194, 23.191715858585273], [72.64235528185353, 23.191715858585273]]]}}, {"type": "Feature", "properties": {"change_detected": 1}, "geometry": {"type": "Polygon", "coordinates": [[[72.63579758027944, 23.190548048715918], [72.63579758027944, 23.190458217187505], [72.63588741180786, 23.190458217187505], [72.63588741180786, 23.19036838565909], [72.6361569063931, 23.19036838565909], [72.6361569063931, 23.190548048715918], [72.63606707486468, 23.190548048715918], [72.63606707486468, 23.190458217187505], [72.63597724333627, 23.190458217187505], [72.63597724333627, 23.190548048715918], [72.63579758027944, 23.190548048715918]]]}}, {"type": "Feature", "properties": {"change_detected": 1}, "geometry": {"type": "Polygon", "coordinates": [[[72.64010949364322, 23.19153619552845], [72.64010949364322, 23.191446364000036], [72.64001966211481, 23.191446364000036], [72.64001966211481, 23.191356532471623], [72.6399298305864, 23.191356532471623], [72.6399298305864, 23.191446364000036], [72.63983999905798, 23.191446364000036], [72.63983999905798, 23.191266700943213], [72.63975016752957, 23.191266700943213], [72.63975016752957, 23.190997206357977], [72.64010949364322, 23.190997206357977], [72.64010949364322, 23.190548048715918], [72.64001966211481, 23.190548048715918], [72.64001966211481, 23.19036838565909], [72.64010949364322, 23.19036838565909], [72.64010949364322, 23.190278554130682], [72.64046881975688, 23.190278554130682], [72.64046881975688, 23.19036838565909], [72.64037898822846, 23.19036838565909], [72.64037898822846, 23.190458217187505], [72.64028915670005, 23.190458217187505], [72.64028915670005, 23.190548048715918], [72.64019932517164, 23.190548048715918], [72.64019932517164, 23.19072771177274], [72.64028915670005, 23.19072771177274], [72.64028915670005, 23.190907374829564], [72.64037898822846, 23.190907374829564], [72.64037898822846, 23.191266700943213], [72.64028915670005, 23.191266700943213], [72.64028915670005, 23.191446364000036], [72.64019932517164, 23.191446364000036], [72.64019932517164, 23.19153619552845], [72.64010949364322, 23.19153619552845]]]}}, {"type": "Feature", "properties": {"change_detected": 1}, "geometry": {"type": "Polygon", "coordinates": [[[72.6407383143421, 23.190278554130682], [72.6407383143421, 23.19018872260227], [72.64082814587051, 23.19018872260227], [72.64082814587051, 23.190278554130682], [72.6407383143421, 23.190278554130682]]]}}, {"type": "Feature", "properties": {"change_detected": 1}, "geometry": {"type": "Polygon", "coordinates": [[[72.64127730351258, 23.190548048715918], [72.64127730351258, 23.19036838565909], [72.64118747198417, 23.19036838565909], [72.64118747198417, 23.190278554130682], [72.64163662962623, 23.190278554130682], [72.64163662962623, 23.19018872260227], [72.64172646115463, 23.19018872260227], [72.64172646115463, 23.19009889107386], [72.64181629268305, 23.19009889107386], [72.64181629268305, 23.190278554130682], [72.64208578726829, 23.190278554130682], [72.64208578726829, 23.19036838565909], [72.6421756187967, 23.19036838565909], [72.6421756187967, 23.190278554130682], [72.64226545032511, 23.190278554130682], [72.64226545032511, 23.190458217187505], [72.64208578726829, 23.190458217187505], [72.64208578726829, 23.190548048715918], [72.64127730351258, 23.190548048715918]]]}}, {"type": "Feature", "properties": {"change_detected": 1}, "geometry": {"type": "Polygon", "coordinates": [[[72.6361569063931, 23.190278554130682], [72.6361569063931, 23.19009889107386], [72.63633656944992, 23.19009889107386], [72.63633656944992, 23.190278554130682], [72.6361569063931, 23.190278554130682]]]}}, {"type": "Feature", "properties": {"change_detected": 1}, "geometry": {"type": "Polygon", "coordinates": [[[72.63732471626246, 23.190278554130682], [72.63732471626246, 23.19018872260227], [72.63705522167722, 23.19018872260227], [72.63705522167722, 23.19009889107386], [72.63723488473404, 23.19009889107386], [72.63723488473404, 23.190009059545446], [72.63768404237611, 23.190009059545446], [72.63768404237611, 23.19018872260227], [72.63741454779087, 23.19018872260227], [72.63741454779087, 23.190278554130682], [72.63732471626246, 23.190278554130682]]]}}, {"type": "Feature", "properties": {"change_detected": 1}, "geometry": {"type": "Polygon", "coordinates": [[[72.64091797739893, 23.190278554130682], [72.64091797739893, 23.19018872260227], [72.64082814587051, 23.19018872260227], [72.64082814587051, 23.19009889107386], [72.64100780892734, 23.19009889107386], [72.64100780892734, 23.190009059545446], [72.64118747198417, 23.190009059545446], [72.64118747198417, 23.19018872260227], [72.64109764045575, 23.19018872260227], [72.64109764045575, 23.190278554130682], [72.64091797739893, 23.190278554130682]]]}}, {"type": "Feature", "properties": {"change_detected": 1}, "geometry": {"type": "Polygon", "coordinates": [[[72.63660606403516, 23.190009059545446], [72.63660606403516, 23.189919228017033], [72.63678572709198, 23.189919228017033], [72.63678572709198, 23.190009059545446], [72.63660606403516, 23.190009059545446]]]}}, {"type": "Feature", "properties": {"change_detected": 1}, "geometry": {"type": "Polygon", "coordinates": [[[72.64208578726829, 23.190009059545446], [72.64208578726829, 23.189919228017033], [72.6421756187967, 23.189919228017033], [72.6421756187967, 23.190009059545446], [72.64208578726829, 23.190009059545446]]]}}, {"type": "Feature", "properties": {"change_detected": 1}, "geometry": {"type": "Polygon", "coordinates": [[[72.64244511338194, 23.190009059545446], [72.64244511338194, 23.189919228017033], [72.64253494491035, 23.189919228017033], [72.64253494491035, 23.190009059545446], [72.64244511338194, 23.190009059545446]]]}}, {"type": "Feature", "properties": {"change_detected": 1}, "geometry": {"type": "Polygon", "coordinates": [[[72.63418061276803, 23.190278554130682], [72.63418061276803, 23.189829396488623], [72.63427044429645, 23.189829396488623], [72.63427044429645, 23.190278554130682], [72.63418061276803, 23.190278554130682]]]}}, {"type": "Feature", "properties": {"change_detected": 1}, "geometry": {"type": "Polygon", "coordinates": [[[72.63561791722263, 23.19036838565909], [72.63561791722263, 23.190278554130682], [72.63552808569422, 23.190278554130682], [72.63552808569422, 23.189829396488623], [72.63570774875105, 23.189829396488623], [72.63570774875105, 23.190009059545446], [72.63579758027944, 23.190009059545446], [72.63579758027944, 23.190278554130682], [72.63570774875105, 23.190278554130682], [72.63570774875105, 23.19036838565909], [72.63561791722263, 23.19036838565909]]]}}, {"type": "Feature", "properties": {"change_detected": 1}, "geometry": {"type": "Polygon", "coordinates": [[[72.63750437931928, 23.189919228017033], [72.63750437931928, 23.189829396488623], [72.6375942108477, 23.189829396488623], [72.6375942108477, 23.189919228017033], [72.63750437931928, 23.189919228017033]]]}}, {"type": "Feature", "properties": {"change_detected": 1}, "geometry": {"type": "Polygon", "coordinates": [[[72.63975016752957, 23.190278554130682], [72.63975016752957, 23.19009889107386], [72.63966033600117, 23.19009889107386], [72.63966033600117, 23.189919228017033], [72.63983999905798, 23.189919228017033], [72.63983999905798, 23.18973956496021], [72.6399298305864, 23.18973956496021], [72.6399298305864, 23.190009059545446], [72.64001966211481, 23.190009059545446], [72.64001966211481, 23.19009889107386], [72.63983999905798, 23.19009889107386], [72.63983999905798, 23.190278554130682], [72.63975016752957, 23.190278554130682]]]}}, {"type": "Feature", "properties": {"change_detected": 1}, "geometry": {"type": "Polygon", "coordinates": [[[72.6406484828137, 23.189919228017033], [72.6406484828137, 23.18973956496021], [72.6407383143421, 23.18973956496021], [72.6407383143421, 23.189919228017033], [72.6406484828137, 23.189919228017033]]]}}, {"type": "Feature", "properties": {"change_detected": 1}, "geometry": {"type": "Polygon", "coordinates": [[[72.63588741180786, 23.189829396488623], [72.63588741180786, 23.18973956496021], [72.63597724333627, 23.18973956496021], [72.63597724333627, 23.189829396488623], [72.63588741180786, 23.189829396488623]]]}}, {"type": "Feature", "properties": {"change_detected": 1}, "geometry": {"type": "Polygon", "coordinates": [[[72.63606707486468, 23.189829396488623], [72.63606707486468, 23.189649733431796], [72.63633656944992, 23.189649733431796], [72.63633656944992, 23.189829396488623], [72.63606707486468, 23.189829396488623]]]}}, {"type": "Feature", "properties": {"change_detected": 1}, "geometry": {"type": "Polygon", "coordinates": [[[72.6399298305864, 23.18973956496021], [72.6399298305864, 23.189649733431796], [72.64001966211481, 23.189649733431796], [72.64001966211481, 23.18973956496021], [72.6399298305864, 23.18973956496021]]]}}, {"type": "Feature", "properties": {"change_detected": 1}, "geometry": {"type": "Polygon", "coordinates": [[[72.64181629268305, 23.19009889107386], [72.64181629268305, 23.190009059545446], [72.64172646115463, 23.190009059545446], [72.64172646115463, 23.189559901903387], [72.64190612421146, 23.189559901903387], [72.64190612421146, 23.189649733431796], [72.64199595573987, 23.189649733431796], [72.64199595573987, 23.189829396488623], [72.64190612421146, 23.189829396488623], [72.64190612421146, 23.190009059545446], [72.64199595573987, 23.190009059545446], [72.64199595573987, 23.19009889107386], [72.64181629268305, 23.19009889107386]]]}}, {"type": "Feature", "properties": {"change_detected": 1}, "geometry": {"type": "Polygon", "coordinates": [[[72.63786370543292, 23.19018872260227], [72.63786370543292, 23.18973956496021], [72.63777387390451, 23.18973956496021], [72.63777387390451, 23.189649733431796], [72.63786370543292, 23.189649733431796], [72.63786370543292, 23.189559901903387], [72.63813320001816, 23.189559901903387], [72.63813320001816, 23.189649733431796], [72.63822303154657, 23.189649733431796], [72.63822303154657, 23.18973956496021], [72.6384026946034, 23.18973956496021], [72.6384026946034, 23.189919228017033], [72.63822303154657, 23.189919228017033], [72.63822303154657, 23.19009889107386], [72.63813320001816, 23.19009889107386], [72.63813320001816, 23.19018872260227], [72.63786370543292, 23.19018872260227]]]}}, {"type": "Feature", "properties": {"change_detected": 1}, "geometry": {"type": "Polygon", "coordinates": [[[72.6369653901488, 23.189649733431796], [72.6369653901488, 23.189559901903387], [72.63705522167722, 23.189559901903387], [72.63705522167722, 23.189649733431796], [72.6369653901488, 23.189649733431796]]]}}, {"type": "Feature", "properties": {"change_detected": 1}, "geometry": {"type": "Polygon", "coordinates": [[[72.63768404237611, 23.189649733431796], [72.63768404237611, 23.189559901903387], [72.63777387390451, 23.189559901903387], [72.63777387390451, 23.189649733431796], [72.63768404237611, 23.189649733431796]]]}}, {"type": "Feature", "properties": {"change_detected": 1}, "geometry": {"type": "Polygon", "coordinates": [[[72.64109764045575, 23.18973956496021], [72.64109764045575, 23.18938023884656], [72.641367135041, 23.18938023884656], [72.641367135041, 23.189470070374973], [72.64145696656941, 23.189470070374973], [72.64145696656941, 23.189559901903387], [72.641367135041, 23.189559901903387], [72.641367135041, 23.189649733431796], [72.64118747198417, 23.189649733431796], [72.64118747198417, 23.18973956496021], [72.64109764045575, 23.18973956496021]]]}}, {"type": "Feature", "properties": {"change_detected": 1}, "geometry": {"type": "Polygon", "coordinates": [[[72.63633656944992, 23.189470070374973], [72.63633656944992, 23.18938023884656], [72.63642640097834, 23.18938023884656], [72.63642640097834, 23.189470070374973], [72.63633656944992, 23.189470070374973]]]}}, {"type": "Feature", "properties": {"change_detected": 1}, "geometry": {"type": "Polygon", "coordinates": [[[72.63957050447276, 23.18938023884656], [72.63957050447276, 23.189110744261328], [72.63975016752957, 23.189110744261328], [72.63975016752957, 23.18929040731815], [72.63966033600117, 23.18929040731815], [72.63966033600117, 23.18938023884656], [72.63957050447276, 23.18938023884656]]]}}, {"type": "Feature", "properties": {"change_detected": 1}, "geometry": {"type": "Polygon", "coordinates": [[[72.64190612421146, 23.18938023884656], [72.64190612421146, 23.18929040731815], [72.64181629268305, 23.18929040731815], [72.64181629268305, 23.189110744261328], [72.64172646115463, 23.189110744261328], [72.64172646115463, 23.189200575789737], [72.64154679809782, 23.189200575789737], [72.64154679809782, 23.189020912732914], [72.64190612421146, 23.189020912732914], [72.64190612421146, 23.189200575789737], [72.64199595573987, 23.189200575789737], [72.64199595573987, 23.18938023884656], [72.64190612421146, 23.18938023884656]]]}}, {"type": "Feature", "properties": {"change_detected": 1}, "geometry": {"type": "Polygon", "coordinates": [[[72.6316653299725, 23.186954787579438], [72.6316653299725, 23.186685292994202], [72.63184499302932, 23.186685292994202], [72.63184499302932, 23.186775124522615], [72.63193482455773, 23.186775124522615], [72.63193482455773, 23.18686495605103], [72.63175516150092, 23.18686495605103], [72.63175516150092, 23.186954787579438], [72.6316653299725, 23.186954787579438]]]}}, {"type": "Feature", "properties": {"change_detected": 1}, "geometry": {"type": "Polygon", "coordinates": [[[72.63139583538727, 23.18686495605103], [72.63139583538727, 23.186685292994202], [72.63148566691568, 23.186685292994202], [72.63148566691568, 23.186775124522615], [72.63157549844409, 23.186775124522615], [72.63157549844409, 23.18686495605103], [72.63139583538727, 23.18686495605103]]]}}, {"type": "Feature", "properties": {"change_detected": 1}, "geometry": {"type": "Polygon", "coordinates": [[[72.63148566691568, 23.186415798408966], [72.63148566691568, 23.186325966880556], [72.6316653299725, 23.186325966880556], [72.6316653299725, 23.18614630382373], [72.63193482455773, 23.18614630382373], [72.63193482455773, 23.18605647229532], [72.63229415067138, 23.18605647229532], [72.63229415067138, 23.186325966880556], [72.63193482455773, 23.186325966880556], [72.63193482455773, 23.186415798408966], [72.63148566691568, 23.186415798408966]]]}}, {"type": "Feature", "properties": {"change_detected": 1}, "geometry": {"type": "Polygon", "coordinates": [[[72.64181629268305, 23.18614630382373], [72.64181629268305, 23.185966640766907], [72.64199595573987, 23.185966640766907], [72.64199595573987, 23.18614630382373], [72.64181629268305, 23.18614630382373]]]}}, {"type": "Feature", "properties": {"change_detected": 1}, "geometry": {"type": "Polygon", "coordinates": [[[72.64280443949558, 23.186325966880556], [72.64280443949558, 23.186236135352143], [72.64271460796716, 23.186236135352143], [72.64271460796716, 23.18614630382373], [72.64253494491035, 23.18614630382373], [72.64253494491035, 23.18605647229532], [72.64262477643877, 23.18605647229532], [72.64262477643877, 23.185966640766907], [72.6429841025524, 23.185966640766907], [72.6429841025524, 23.18605647229532], [72.64307393408082, 23.18605647229532], [72.64307393408082, 23.186236135352143], [72.64289427102399, 23.186236135352143], [72.64289427102399, 23.186325966880556], [72.64280443949558, 23.186325966880556]]]}}, {"type": "Feature", "properties": {"change_detected": 1}, "geometry": {"type": "Polygon", "coordinates": [[[72.63966033600117, 23.18560731465326], [72.63966033600117, 23.185427651596434], [72.63975016752957, 23.185427651596434], [72.63975016752957, 23.18560731465326], [72.63966033600117, 23.18560731465326]]]}}, {"type": "Feature", "properties": {"change_detected": 1}, "geometry": {"type": "Polygon", "coordinates": [[[72.63930100988752, 23.185517483124848], [72.63930100988752, 23.185427651596434], [72.63939084141593, 23.185427651596434], [72.63939084141593, 23.185517483124848], [72.63930100988752, 23.185517483124848]]]}}, {"type": "Feature", "properties": {"change_detected": 1}, "geometry": {"type": "Polygon", "coordinates": [[[72.63436027582486, 23.185427651596434], [72.63436027582486, 23.185337820068025], [72.63445010735327, 23.185337820068025], [72.63445010735327, 23.185427651596434], [72.63436027582486, 23.185427651596434]]]}}, {"type": "Feature", "properties": {"change_detected": 1}, "geometry": {"type": "Polygon", "coordinates": [[[72.64019932517164, 23.18560731465326], [72.64019932517164, 23.185337820068025], [72.64037898822846, 23.185337820068025], [72.64037898822846, 23.18524798853961], [72.64055865128529, 23.18524798853961], [72.64055865128529, 23.185337820068025], [72.6406484828137, 23.185337820068025], [72.6406484828137, 23.185427651596434], [72.64055865128529, 23.185427651596434], [72.64055865128529, 23.185517483124848], [72.64037898822846, 23.185517483124848], [72.64037898822846, 23.18560731465326], [72.64019932517164, 23.18560731465326]]]}}, {"type": "Feature", "properties": {"change_detected": 1}, "geometry": {"type": "Polygon", "coordinates": [[[72.6361569063931, 23.185337820068025], [72.6361569063931, 23.185158157011198], [72.63633656944992, 23.185158157011198], [72.63633656944992, 23.185337820068025], [72.6361569063931, 23.185337820068025]]]}}, {"type": "Feature", "properties": {"change_detected": 1}, "geometry": {"type": "Polygon", "coordinates": [[[72.63804336848975, 23.185337820068025], [72.63804336848975, 23.18524798853961], [72.63795353696133, 23.18524798853961], [72.63795353696133, 23.185158157011198], [72.63822303154657, 23.185158157011198], [72.63822303154657, 23.18524798853961], [72.63813320001816, 23.18524798853961], [72.63813320001816, 23.185337820068025], [72.63804336848975, 23.185337820068025]]]}}, {"type": "Feature", "properties": {"change_detected": 1}, "geometry": {"type": "Polygon", "coordinates": [[[72.64001966211481, 23.18524798853961], [72.64001966211481, 23.185158157011198], [72.64010949364322, 23.185158157011198], [72.64010949364322, 23.18524798853961], [72.64001966211481, 23.18524798853961]]]}}, {"type": "Feature", "properties": {"change_detected": 1}, "geometry": {"type": "Polygon", "coordinates": [[[72.63516875958057, 23.18524798853961], [72.63516875958057, 23.18506832548279], [72.63525859110898, 23.18506832548279], [72.63525859110898, 23.18524798853961], [72.63516875958057, 23.18524798853961]]]}}, {"type": "Feature", "properties": {"change_detected": 1}, "geometry": {"type": "Polygon", "coordinates": [[[72.63175516150092, 23.185158157011198], [72.63175516150092, 23.18506832548279], [72.63184499302932, 23.18506832548279], [72.63184499302932, 23.185158157011198], [72.63175516150092, 23.185158157011198]]]}}, {"type": "Feature", "properties": {"change_detected": 1}, "geometry": {"type": "Polygon", "coordinates": [[[72.63310263442709, 23.185158157011198], [72.63310263442709, 23.18506832548279], [72.6331924659555, 23.18506832548279], [72.6331924659555, 23.185158157011198], [72.63310263442709, 23.185158157011198]]]}}, {"type": "Feature", "properties": {"change_detected": 1}, "geometry": {"type": "Polygon", "coordinates": [[[72.63489926499533, 23.185158157011198], [72.63489926499533, 23.184978493954375], [72.63498909652374, 23.184978493954375], [72.63498909652374, 23.185158157011198], [72.63489926499533, 23.185158157011198]]]}}, {"type": "Feature", "properties": {"change_detected": 1}, "geometry": {"type": "Polygon", "coordinates": [[[72.63148566691568, 23.18506832548279], [72.63148566691568, 23.184978493954375], [72.63157549844409, 23.184978493954375], [72.63157549844409, 23.18506832548279], [72.63148566691568, 23.18506832548279]]]}}, {"type": "Feature", "properties": {"change_detected": 1}, "geometry": {"type": "Polygon", "coordinates": [[[72.63229415067138, 23.18506832548279], [72.63229415067138, 23.184978493954375], [72.6323839821998, 23.184978493954375], [72.6323839821998, 23.18506832548279], [72.63229415067138, 23.18506832548279]]]}}, {"type": "Feature", "properties": {"change_detected": 1}, "geometry": {"type": "Polygon", "coordinates": [[[72.63777387390451, 23.18506832548279], [72.63777387390451, 23.184978493954375], [72.63786370543292, 23.184978493954375], [72.63786370543292, 23.18506832548279], [72.63777387390451, 23.18506832548279]]]}}, {"type": "Feature", "properties": {"change_detected": 1}, "geometry": {"type": "Polygon", "coordinates": [[[72.63903151530228, 23.185158157011198], [72.63903151530228, 23.184888662425966], [72.63912134683069, 23.184888662425966], [72.63912134683069, 23.184978493954375], [72.6392111783591, 23.184978493954375], [72.6392111783591, 23.18506832548279], [72.63912134683069, 23.18506832548279], [72.63912134683069, 23.185158157011198], [72.63903151530228, 23.185158157011198]]]}}, {"type": "Feature", "properties": {"change_detected": 1}, "geometry": {"type": "Polygon", "coordinates": [[[72.63211448761456, 23.18506832548279], [72.63211448761456, 23.184888662425966], [72.63229415067138, 23.184888662425966], [72.63229415067138, 23.184978493954375], [72.63220431914297, 23.184978493954375], [72.63220431914297, 23.18506832548279], [72.63211448761456, 23.18506832548279]]]}}, {"type": "Feature", "properties": {"change_detected": 1}, "geometry": {"type": "Polygon", "coordinates": [[[72.63453993888169, 23.18506832548279], [72.63453993888169, 23.184888662425966], [72.6346297704101, 23.184888662425966], [72.6346297704101, 23.18506832548279], [72.63453993888169, 23.18506832548279]]]}}, {"type": "Feature", "properties": {"change_detected": 1}, "geometry": {"type": "Polygon", "coordinates": [[[72.63400094971121, 23.184978493954375], [72.63400094971121, 23.184888662425966], [72.63409078123962, 23.184888662425966], [72.63409078123962, 23.184978493954375], [72.63400094971121, 23.184978493954375]]]}}, {"type": "Feature", "properties": {"change_detected": 1}, "geometry": {"type": "Polygon", "coordinates": [[[72.63948067294434, 23.184978493954375], [72.63948067294434, 23.184888662425966], [72.63975016752957, 23.184888662425966], [72.63975016752957, 23.184978493954375], [72.63948067294434, 23.184978493954375]]]}}, {"type": "Feature", "properties": {"change_detected": 1}, "geometry": {"type": "Polygon", "coordinates": [[[72.6316653299725, 23.18506832548279], [72.6316653299725, 23.184798830897552], [72.63175516150092, 23.184798830897552], [72.63175516150092, 23.18506832548279], [72.6316653299725, 23.18506832548279]]]}}, {"type": "Feature", "properties": {"change_detected": 1}, "geometry": {"type": "Polygon", "coordinates": [[[72.63633656944992, 23.184978493954375], [72.63633656944992, 23.184798830897552], [72.63642640097834, 23.184798830897552], [72.63642640097834, 23.184978493954375], [72.63633656944992, 23.184978493954375]]]}}, {"type": "Feature", "properties": {"change_detected": 1}, "geometry": {"type": "Polygon", "coordinates": [[[72.63687555862039, 23.184978493954375], [72.63687555862039, 23.184798830897552], [72.6369653901488, 23.184798830897552], [72.6369653901488, 23.184978493954375], [72.63687555862039, 23.184978493954375]]]}}, {"type": "Feature", "properties": {"change_detected": 1}, "geometry": {"type": "Polygon", "coordinates": [[[72.6375942108477, 23.18506832548279], [72.6375942108477, 23.184978493954375], [72.63750437931928, 23.184978493954375], [72.63750437931928, 23.184798830897552], [72.63768404237611, 23.184798830897552], [72.63768404237611, 23.18506832548279], [72.6375942108477, 23.18506832548279]]]}}, {"type": "Feature", "properties": {"change_detected": 1}, "geometry": {"type": "Polygon", "coordinates": [[[72.63885185224545, 23.185337820068025], [72.63885185224545, 23.18470899936914], [72.63894168377387, 23.18470899936914], [72.63894168377387, 23.185337820068025], [72.63885185224545, 23.185337820068025]]]}}, {"type": "Feature", "properties": {"change_detected": 1}, "geometry": {"type": "Polygon", "coordinates": [[[72.63184499302932, 23.18506832548279], [72.63184499302932, 23.184978493954375], [72.63193482455773, 23.184978493954375], [72.63193482455773, 23.18470899936914], [72.63202465608614, 23.18470899936914], [72.63202465608614, 23.18506832548279], [72.63184499302932, 23.18506832548279]]]}}, {"type": "Feature", "properties": {"change_detected": 1}, "geometry": {"type": "Polygon", "coordinates": [[[72.63256364525662, 23.185158157011198], [72.63256364525662, 23.18506832548279], [72.63247381372821, 23.18506832548279], [72.63247381372821, 23.18470899936914], [72.63265347678504, 23.18470899936914], [72.63265347678504, 23.184798830897552], [72.63274330831345, 23.184798830897552], [72.63274330831345, 23.184978493954375], [72.63283313984185, 23.184978493954375], [72.63283313984185, 23.18506832548279], [72.63274330831345, 23.18506832548279], [72.63274330831345, 23.185158157011198], [72.63256364525662, 23.185158157011198]]]}}, {"type": "Feature", "properties": {"change_detected": 1}, "geometry": {"type": "Polygon", "coordinates": [[[72.6399298305864, 23.18506832548279], [72.6399298305864, 23.184798830897552], [72.64001966211481, 23.184798830897552], [72.64001966211481, 23.18470899936914], [72.64010949364322, 23.18470899936914], [72.64010949364322, 23.184888662425966], [72.64019932517164, 23.184888662425966], [72.64019932517164, 23.184978493954375], [72.64010949364322, 23.184978493954375], [72.64010949364322, 23.18506832548279], [72.6399298305864, 23.18506832548279]]]}}, {"type": "Feature", "properties": {"change_detected": 1}, "geometry": {"type": "Polygon", "coordinates": [[[72.63337212901233, 23.184978493954375], [72.63337212901233, 23.18470899936914], [72.63346196054074, 23.18470899936914], [72.63346196054074, 23.184798830897552], [72.63355179206916, 23.184798830897552], [72.63355179206916, 23.184888662425966], [72.63346196054074, 23.184888662425966], [72.63346196054074, 23.184978493954375], [72.63337212901233, 23.184978493954375]]]}}, {"type": "Feature", "properties": {"change_detected": 1}, "geometry": {"type": "Polygon", "coordinates": [[[72.63516875958057, 23.184978493954375], [72.63516875958057, 23.18470899936914], [72.63534842263739, 23.18470899936914], [72.63534842263739, 23.184978493954375], [72.63516875958057, 23.184978493954375]]]}}, {"type": "Feature", "properties": {"change_detected": 1}, "geometry": {"type": "Polygon", "coordinates": [[[72.63310263442709, 23.184888662425966], [72.63310263442709, 23.184798830897552], [72.6331924659555, 23.184798830897552], [72.6331924659555, 23.18470899936914], [72.63328229748392, 23.18470899936914], [72.63328229748392, 23.184888662425966], [72.63310263442709, 23.184888662425966]]]}}, {"type": "Feature", "properties": {"change_detected": 1}, "geometry": {"type": "Polygon", "coordinates": [[[72.63364162359757, 23.184888662425966], [72.63364162359757, 23.184798830897552], [72.63382128665438, 23.184798830897552], [72.63382128665438, 23.18470899936914], [72.6339111181828, 23.18470899936914], [72.6339111181828, 23.184888662425966], [72.63364162359757, 23.184888662425966]]]}}, {"type": "Feature", "properties": {"change_detected": 1}, "geometry": {"type": "Polygon", "coordinates": [[[72.63130600385885, 23.184798830897552], [72.63130600385885, 23.18470899936914], [72.63139583538727, 23.18470899936914], [72.63139583538727, 23.184798830897552], [72.63130600385885, 23.184798830897552]]]}}, {"type": "Feature", "properties": {"change_detected": 1}, "geometry": {"type": "Polygon", "coordinates": [[[72.63211448761456, 23.184798830897552], [72.63211448761456, 23.18470899936914], [72.63220431914297, 23.18470899936914], [72.63220431914297, 23.184798830897552], [72.63211448761456, 23.184798830897552]]]}}, {"type": "Feature", "properties": {"change_detected": 1}, "geometry": {"type": "Polygon", "coordinates": [[[72.63570774875105, 23.184978493954375], [72.63570774875105, 23.184888662425966], [72.63579758027944, 23.184888662425966], [72.63579758027944, 23.184798830897552], [72.63561791722263, 23.184798830897552], [72.63561791722263, 23.18470899936914], [72.63588741180786, 23.18470899936914], [72.63588741180786, 23.184888662425966], [72.63597724333627, 23.184888662425966], [72.63597724333627, 23.184978493954375], [72.63570774875105, 23.184978493954375]]]}}, {"type": "Feature", "properties": {"change_detected": 1}, "geometry": {"type": "Polygon", "coordinates": [[[72.63903151530228, 23.184798830897552], [72.63903151530228, 23.18470899936914], [72.63912134683069, 23.18470899936914], [72.63912134683069, 23.184798830897552], [72.63903151530228, 23.184798830897552]]]}}, {"type": "Feature", "properties": {"change_detected": 1}, "geometry": {"type": "Polygon", "coordinates": [[[72.63939084141593, 23.184888662425966], [72.63939084141593, 23.184798830897552], [72.63930100988752, 23.184798830897552], [72.63930100988752, 23.18470899936914], [72.6399298305864, 23.18470899936914], [72.6399298305864, 23.184798830897552], [72.63948067294434, 23.184798830897552], [72.63948067294434, 23.184888662425966], [72.63939084141593, 23.184888662425966]]]}}, {"type": "Feature", "properties": {"change_detected": 1}, "geometry": {"type": "Polygon", "coordinates": [[[72.64019932517164, 23.184798830897552], [72.64019932517164, 23.18470899936914], [72.64028915670005, 23.18470899936914], [72.64028915670005, 23.184798830897552], [72.64019932517164, 23.184798830897552]]]}}, {"type": "Feature", "properties": {"change_detected": 1}, "geometry": {"type": "Polygon", "coordinates": [[[72.64280443949558, 23.184798830897552], [72.64280443949558, 23.18470899936914], [72.64289427102399, 23.18470899936914], [72.64289427102399, 23.184798830897552], [72.64280443949558, 23.184798830897552]]]}}]}